[{"OBJECT_NAME":"STARLINK-4797","OBJECT_ID":"2022-114AL","EPOCH":"2026-03-09T21:27:28.378944","MEAN_MOTION":15.08838488,"ECCENTRICITY":0.00013892,"INCLINATION":53.2167,"RA_OF_ASC_NODE":288.1362,"ARG_OF_PERICENTER":98.6724,"MEAN_ANOMALY":261.4426,"EPHEMERIS_TYPE":0,"CLASSIFICATION_TYPE":"U","NORAD_CAT_ID":53852,"ELEMENT_SET_NO":999,"REV_AT_EPOCH":19307,"BSTAR":-1.2817237e-5,"MEAN_MOTION_DOT":-4.92e-6,"MEAN_MOTION_DDOT":0},{"OBJECT_NAME":"OBJECT F","OBJECT_ID":"2025-292F","EPOCH":"2026-03-09T22:41:00.950496","MEAN_MOTION":15.06065121,"ECCENTRICITY":0.00151037,"INCLINATION":97.6416,"RA_OF_ASC_NODE":145.7425,"ARG_OF_PERICENTER":346.7214,"MEAN_ANOMALY":13.3613,"EPHEMERIS_TYPE":0,"CLASSIFICATION_TYPE":"U","NORAD_CAT_ID":66998,"ELEMENT_SET_NO":999,"REV_AT_EPOCH":1351,"BSTAR":0.00047210602,"MEAN_MOTION_DOT":6.85e-5,"MEAN_MOTION_DDOT":0}]
